QIANFAN-17              
1 60395U 24140S   25316.29326920  .00000088  00000+0  11803-3 0  9995
2 60395  88.9743 302.5871 0013273 298.2304  61.7506 13.50972065 64029
QIANFAN-18              
1 60396U 24140T   25316.27267647  .00000072  00000+0  93704-4 0  9998
2 60396  88.9736 302.1249 0012359 278.7236  81.2515 13.50972075 63418
QIANFAN-19              
1 61552U 24185A   25316.30280685  .00001179  00000+0  61072-3 0  9994
2 61552  88.9804  81.4225 0008363  54.3166 305.8798 14.14247989 65364
QIANFAN-20              
1 61553U 24185B   25316.28865769  .00001308  00000+0  75072-3 0  9993
2 61553  88.9802  81.7173 0007744  86.1045 274.1024 14.08792734 65208
QIANFAN-22              
1 61555U 24185D   25316.33018881  .00000469  00000+0  39414-3 0  9993
2 61555  88.9785  82.5719 0008467  90.8184 269.3958 13.86286574 64727
QIANFAN-23              
1 61556U 24185E   25316.32110025  .00001444  00000+0  72210-3 0  9991
2 61556  88.9796  81.2445 0009418  63.0061 297.2088 14.16248008 65443
